SatCatId,ObjectName,LaunchYear,OrbitalPeriod,LaunchMass,StatusCode,Inclination,Status,UcsData,OrbitClassEstimated,LaunchSiteCountry,Owner,UseType,Purpose,LaunchVehicleClass,TLE1,TLE2,MeanMotion,Eccentricity,OrbitClass
50158,STARLINK-3309,2021,95.44,260.0,+,53.22,Active,1,LEO,USA,USA,Commercial,Communications,Falcon,1 50158U 21125C   23143.74085871 -.00000530  00000+0 -15249-4 0  9997,2 50158  53.2170 162.3446 0001153 105.7855 254.3264 15.08838709 82393,15.08838709,0.0001153,LEO
50159,STARLINK-3297,2021,95.44,260.0,+,53.22,Active,1,LEO,USA,USA,Commercial,Communications,Falcon,1 50159U 21125D   23143.47221932 -.00000249  00000+0  24141-5 0  9996,2 50159  53.2161 163.5546 0001120  90.9878 269.1243 15.08837011 78742,15.08837011,0.000112,LEO
50160,STARLINK-3288,2021,95.44,260.0,+,53.22,Active,1,LEO,USA,USA,Commercial,Communications,Falcon,1 50160U 21125E   23144.33974251  .00001177  00000+0  92007-4 0  9998,2 50160  53.2159 159.6481 0001093  95.2091 264.9026 15.08832402 81935,15.08832402,0.0001093,LEO
50161,STARLINK-3304,2021,95.44,260.0,+,53.22,Active,1,LEO,USA,USA,Commercial,Communications,Falcon,1 50161U 21125F   23144.40966179  .00001990  00000+0  14311-3 0  9991,2 50161  53.2160 159.3340 0000909  95.9200 264.1896 15.08835861 81943,15.08835861,9.09e-05,LEO
50162,STARLINK-3303,2021,91.82,260.0,+,53.21,Active,1,LEO,USA,USA,Commercial,Communications,Falcon,1 50162U 21125G   23143.89540783  .00060795  00000+0  53033-3 0  9995,2 50162  53.2102 319.9532 0002145 176.8738 183.2294 15.68421969 85220,15.68421969,0.0002145,LEO
50163,STARLINK-3306,2021,95.44,260.0,+,53.22,Active,1,LEO,USA,USA,Commercial,Communications,Falcon,1 50163U 21125H   23143.99566125  .00000988  00000+0  80144-4 0  9997,2 50163  53.2155 141.1821 0001168  94.6155 265.4971 15.08833473 82165,15.08833473,0.0001168,LEO
50165,STARLINK-3298,2021,95.44,260.0,+,53.22,Active,1,LEO,USA,USA,Commercial,Communications,Falcon,1 50165U 21125K   23143.46758181 -.00000447  00000+0 -99804-5 0  9992,2 50165  53.2156 163.5599 0001134  93.9235 266.1887 15.08838960 79203,15.0883896,0.0001134,LEO
50166,STARLINK-3305,2021,95.44,260.0,+,53.21,Active,1,LEO,USA,USA,Commercial,Communications,Falcon,1 50166U 21125L   23144.41793063  .00002340  00000+0  16502-3 0  9991,2 50166  53.2139 149.3047 0001179  93.5811 266.5316 15.08846756 79483,15.08846756,0.0001179,LEO
50167,STARLINK-3271,2021,95.44,260.0,+,53.22,Active,1,LEO,USA,USA,Commercial,Communications,Falcon,1 50167U 21125M   23143.46118274 -.00000564  00000+0 -17334-4 0  9994,2 50167  53.2161 163.6033 0001301  97.1063 263.0077 15.08839060 81804,15.0883906,0.0001301,LEO
50168,STARLINK-3296,2021,95.44,260.0,+,53.21,Active,1,LEO,USA,USA,Commercial,Communications,Falcon,1 50168U 21125N   23143.75186290  .00000908  00000+0  75203-4 0  9999,2 50168  53.2134 152.2985 0002925  57.1576 302.9697 15.08839626 82476,15.08839626,0.0002925,LEO
50169,STARLINK-3301,2021,95.44,260.0,+,53.22,Active,1,LEO,USA,USA,Commercial,Communications,Falcon,1 50169U 21125P   23143.72242100  .00000985  00000+0  79958-4 0  9996,2 50169  53.2153 152.4185 0001072  91.2993 268.8122 15.08835696 82472,15.08835696,0.0001072,LEO
50170,STARLINK-3245,2021,95.44,260.0,+,53.22,Active,1,LEO,USA,USA,Commercial,Communications,Falcon,1 50170U 21125Q   23144.00946432  .00000830  00000+0  70246-4 0  9999,2 50170  53.2165 151.1261 0001035  90.6722 269.4389 15.08831967 82020,15.08831967,0.0001035,LEO
50171,STARLINK-3286,2021,95.44,260.0,+,53.22,Active,1,LEO,USA,USA,Commercial,Communications,Falcon,1 50171U 21125R   23144.42162326  .00000690  00000+0  61431-4 0  9998,2 50171  53.2159 149.2775 0001051  87.4201 272.6912 15.08835152 82080,15.08835152,0.0001051,LEO
50172,STARLINK-3287,2021,95.44,260.0,+,53.22,Active,1,LEO,USA,USA,Commercial,Communications,Falcon,1 50172U 21125S   23143.73714160  .00000523  00000+0  50966-4 0  9997,2 50172  53.2162 152.3515 0001095  96.1515 263.9602 15.08837699 81980,15.08837699,0.0001095,LEO
50173,STARLINK-3289,2021,95.44,260.0,+,53.22,Active,1,LEO,USA,USA,Commercial,Communications,Falcon,1 50173U 21125T   23143.70495106  .00000582  00000+0  54682-4 0  9995,2 50173  53.2163 142.5642 0001273  94.1518 265.9620 15.08835804 82612,15.08835804,0.0001273,LEO
50174,STARLINK-3292,2021,95.44,260.0,+,53.22,Active,1,LEO,USA,USA,Commercial,Communications,Falcon,1 50174U 21125U   23143.72610506  .00000316  00000+0  37919-4 0  9990,2 50174  53.2167 152.4019 0001250  95.9367 264.1767 15.08833227 82510,15.08833227,0.000125,LEO
50175,STARLINK-3291,2021,95.44,260.0,+,53.22,Active,1,LEO,USA,USA,Commercial,Communications,Falcon,1 50175U 21125V   23144.27810291  .00001348  00000+0  10275-3 0  9996,2 50175  53.2165 149.9202 0000991  93.5129 266.5977 15.08835316 82065,15.08835316,9.91e-05,LEO
50176,STARLINK-3293,2021,95.44,260.0,+,53.22,Active,1,LEO,USA,USA,Commercial,Communications,Falcon,1 50176U 21125W   23143.72978578  .00000526  00000+0  51117-4 0  9997,2 50176  53.2163 152.3867 0001191  92.6796 267.4333 15.08832240 82511,15.0883224,0.0001191,LEO
50177,STARLINK-3282,2021,95.44,260.0,+,53.22,Active,1,LEO,USA,USA,Commercial,Communications,Falcon,1 50177U 21125X   23143.74082356 -.00000498  00000+0 -13204-4 0  9995,2 50177  53.2164 152.3354 0001186  95.3352 264.7776 15.08839923 82477,15.08839923,0.0001186,LEO
50178,STARLINK-3284,2021,95.44,260.0,+,53.22,Active,1,LEO,USA,USA,Commercial,Communications,Falcon,1 50178U 21125Y   23144.28272203  .00001641  00000+0  12119-3 0  9990,2 50178  53.2161 149.7605 0001133  89.4692 270.6430 15.08836359 82065,15.08836359,0.0001133,LEO
50179,STARLINK-3283,2021,95.44,260.0,+,53.22,Active,1,LEO,USA,USA,Commercial,Communications,Falcon,1 50179U 21125Z   23143.73346505  .00000743  00000+0  64762-4 0  9991,2 50179  53.2162 152.3692 0001117 100.2625 259.8493 15.08835207 82477,15.08835207,0.0001117,LEO
50180,STARLINK-3265,2021,95.44,260.0,+,53.22,Active,1,LEO,USA,USA,Commercial,Communications,Falcon,1 50180U 21125AA  23144.24962162 -.00000360  00000+0 -45144-5 0  9994,2 50180  53.2165 150.0652 0001182  77.3609 282.7515 15.08840772 79469,15.08840772,0.0001182,LEO
50181,STARLINK-3285,2021,95.44,260.0,+,53.22,Active,1,LEO,USA,USA,Commercial,Communications,Falcon,1 50181U 21125AB  23144.24225772  .00001891  00000+0  13689-3 0  9999,2 50181  53.2163 150.0955 0001145  95.4070 264.7052 15.08837003 82065,15.08837003,0.0001145,LEO
50182,STARLINK-3277,2021,95.44,260.0,+,53.22,Active,1,LEO,USA,USA,Commercial,Communications,Falcon,1 50182U 21125AC  23144.28641702 -.00001106  00000+0 -51455-4 0  9994,2 50182  53.2158 149.7436 0001509  93.5000 266.6165 15.08826536 82071,15.08826536,0.0001509,LEO
50183,STARLINK-3281,2021,95.44,260.0,+,53.22,Active,1,LEO,USA,USA,Commercial,Communications,Falcon,1 50183U 21125AD  23144.03889995  .00000900  00000+0  74609-4 0  9991,2 50183  53.2162 150.9970 0001139  90.1580 269.9542 15.08833872 79431,15.08833872,0.0001139,LEO
50185,STARLINK-3279,2021,95.44,260.0,+,53.22,Active,1,LEO,USA,USA,Commercial,Communications,Falcon,1 50185U 21125AF  23144.30481038  .00000975  00000+0  79363-4 0  9993,2 50185  53.2160 149.7374 0001447  91.0283 269.0875 15.08839352 82081,15.08839352,0.0001447,LEO
50186,STARLINK-3274,2021,95.44,260.0,+,53.22,Active,1,LEO,USA,USA,Commercial,Communications,Falcon,1 50186U 21125AG  23143.46389802  .00000089  00000+0  23675-4 0  9997,2 50186  53.2160 163.5776 0001049 100.9094 259.2017 15.08839219 81800,15.08839219,0.0001049,LEO
50187,STARLINK-3272,2021,95.44,260.0,+,53.22,Active,1,LEO,USA,USA,Commercial,Communications,Falcon,1 50187U 21125AH  23143.95518200  .00000559  00000+0  53211-4 0  9999,2 50187  53.2157 141.3755 0001070  83.6782 276.4332 15.08836115 82627,15.08836115,0.000107,LEO
50188,STARLINK-3275,2021,94.62,260.0,+,53.21,Active,1,LEO,USA,USA,Commercial,Communications,Falcon,1 50188U 21125AJ  23144.23089771 -.00009915  00000+0 -41753-3 0  9992,2 50188  53.2178 133.2590 0002202  61.8773 298.2447 15.21803888 79681,15.21803888,0.0002202,LEO
50189,STARLINK-3276,2021,95.44,260.0,+,53.22,Active,1,LEO,USA,USA,Commercial,Communications,Falcon,1 50189U 21125AK  23143.76385990  .00000684  00000+0  61037-4 0  9992,2 50189  53.2170 152.2400 0001164  82.4048 277.7076 15.08838539 82517,15.08838539,0.0001164,LEO
50190,STARLINK-3268,2021,95.44,260.0,+,53.22,Active,1,LEO,USA,USA,Commercial,Communications,Falcon,1 50190U 21125AL  23143.41421703 -.00000028  00000+0  16342-4 0  9991,2 50190  53.2166 143.8001 0001128  95.0759 265.0362 15.08840243 82553,15.08840243,0.0001128,LEO
50191,STARLINK-3273,2021,95.44,260.0,+,53.22,Active,1,LEO,USA,USA,Commercial,Communications,Falcon,1 50191U 21125AM  23143.75462382  .00001361  00000+0  10361-3 0  9991,2 50191  53.2156 162.2757 0001113  89.9416 270.1704 15.08833386 82324,15.08833386,0.0001113,LEO
50192,STARLINK-3259,2021,95.44,260.0,+,53.22,Active,1,LEO,USA,USA,Commercial,Communications,Falcon,1 50192U 21125AN  23144.40413863  .00001099  00000+0  87107-4 0  9996,2 50192  53.2167 139.3562 0001000  86.1552 273.9554 15.08839052 79619,15.08839052,0.0001,LEO
50193,STARLINK-3261,2021,95.44,260.0,+,53.22,Active,1,LEO,USA,USA,Commercial,Communications,Falcon,1 50193U 21125AP  23144.41519618  .00001595  00000+0  11831-3 0  9994,2 50193  53.2163 139.3079 0001095  91.5095 268.6022 15.08831486 82220,15.08831486,0.0001095,LEO
50194,STARLINK-3269,2021,95.44,260.0,+,53.22,Active,1,LEO,USA,USA,Commercial,Communications,Falcon,1 50194U 21125AQ  23144.40141751  .00000639  00000+0  58208-4 0  9991,2 50194  53.2164 139.3789 0001068  90.1109 270.0006 15.08838286 82225,15.08838286,0.0001068,LEO
50195,STARLINK-3266,2021,95.44,260.0,+,53.22,Active,1,LEO,USA,USA,Commercial,Communications,Falcon,1 50195U 21125AR  23144.27902262  .00002564  00000+0  17916-3 0  9998,2 50195  53.2159 139.9212 0000930  93.0052 267.1046 15.08827897 82208,15.08827897,9.3e-05,LEO
